TWILIGHT H              
1 67370U 26004H   26037.98594294  .00006583  00000+0  73210-3 0  9990
2 67370  97.7959  38.6832 0006298 202.0291 158.0656 14.87468071  3934
TWILIGHT J              
1 67371U 26004J   26037.97953900  .00007256  00000+0  79804-3 0  9996
2 67371  97.8002  38.6995 0005734 185.3317 174.7839 14.87888834  3932
ICEYE-X63               
1 67372U 26004K   26037.97505302  .00003808  00000+0  42092-3 0  9994
2 67372  97.7981  38.7002 0003965 178.8782 181.2444 14.87985233  3931
ICEYE-X64               
1 67373U 26004L   26037.98202749  .00002571  00000+0  28888-3 0  9998
2 67373  97.7995  38.6947 0005471 191.6293 168.4798 14.87584294  3939
AETHER-3                
1 67374U 26004M   26037.97609538  .00002541  00000+0  28315-3 0  9997
2 67374  97.7979  38.6975 0004233 179.7550 180.3669 14.87942973  3933
AETHER-4                
1 67375U 26004N   26037.90839582  .00002615  00000+0  29108-3 0  9998
2 67375  97.8016  38.6424 0004826 175.8332 184.2925 14.87963795  3921
AETHER-5                
1 67376U 26004P   26037.97829171  .00002620  00000+0  29272-3 0  9997
2 67376  97.8013  38.7038 0005154 181.9856 178.1341 14.87804931  3936
AETHER-6                
1 67377U 26004Q   26036.63062798 -.00251653  00000+0 -28936-1 0  9992
2 67377  97.8013  37.3851 0004629 129.8525 230.3099 14.87287400  3729
AETHER-7                
1 67378U 26004R   26037.97957675  .00002387  00000+0  26764-3 0  9993
2 67378  97.7987  38.6951 0004568 190.0684 170.0442 14.87735633  3922
AETHER-8                
1 67379U 26004S   26037.97938739  .00002450  00000+0  27455-3 0  9993
2 67379  97.7991  38.6974 0005053 187.2251 172.8893 14.87744832  3922
AETHER-9                
1 67380U 26004T   26037.97774387  .00002660  00000+0  29682-3 0  9999
2 67380  97.7983  38.6973 0004566 185.5132 174.6035 14.87846002  3921
AETHER-10               
1 67381U 26004U   26037.10137301 -.00238932  00000+0 -27452-1 0  9990
2 67381  97.8017  37.8505 0003166 142.3540 217.7899 14.87251054  3791
