CCSDS_OMM_VERS = 2.0
CREATION_DATE  = 
ORIGINATOR     = 

OBJECT_NAME    = TWILIGHT H
OBJECT_ID      = 2026-004H
CENTER_NAME    = EARTH
REF_FRAME      = TEME
TIME_SYSTEM    = UTC
MEAN_ELEMENT_THEORY = SGP/SGP4

EPOCH          = 2026-02-06T23:39:45.470016
MEAN_MOTION    = 14.87468071
ECCENTRICITY   = .00062987
INCLINATION    = 97.7959
RA_OF_ASC_NODE = 38.6832
ARG_OF_PERICENTER = 202.0291
MEAN_ANOMALY   = 158.0656

EPHEMERIS_TYPE = 0
CLASSIFICATION_TYPE = U
NORAD_CAT_ID   = 67370
ELEMENT_SET_NO = 999
REV_AT_EPOCH   = 393
BSTAR          = .73209623E-3
MEAN_MOTION_DOT = .6583E-4
MEAN_MOTION_DDOT = 0

CCSDS_OMM_VERS = 2.0
CREATION_DATE  = 
ORIGINATOR     = 

OBJECT_NAME    = TWILIGHT J
OBJECT_ID      = 2026-004J
CENTER_NAME    = EARTH
REF_FRAME      = TEME
TIME_SYSTEM    = UTC
MEAN_ELEMENT_THEORY = SGP/SGP4

EPOCH          = 2026-02-06T23:30:32.169600
MEAN_MOTION    = 14.87888834
ECCENTRICITY   = .0005734
INCLINATION    = 97.8002
RA_OF_ASC_NODE = 38.6995
ARG_OF_PERICENTER = 185.3317
MEAN_ANOMALY   = 174.7839

EPHEMERIS_TYPE = 0
CLASSIFICATION_TYPE = U
NORAD_CAT_ID   = 67371
ELEMENT_SET_NO = 999
REV_AT_EPOCH   = 393
BSTAR          = .79803636E-3
MEAN_MOTION_DOT = .7256E-4
MEAN_MOTION_DDOT = 0

CCSDS_OMM_VERS = 2.0
CREATION_DATE  = 
ORIGINATOR     = 

OBJECT_NAME    = ICEYE-X63
OBJECT_ID      = 2026-004K
CENTER_NAME    = EARTH
REF_FRAME      = TEME
TIME_SYSTEM    = UTC
MEAN_ELEMENT_THEORY = SGP/SGP4

EPOCH          = 2026-02-06T23:24:04.580928
MEAN_MOTION    = 14.87985233
ECCENTRICITY   = .00039651
INCLINATION    = 97.7981
RA_OF_ASC_NODE = 38.7002
ARG_OF_PERICENTER = 178.8782
MEAN_ANOMALY   = 181.2444

EPHEMERIS_TYPE = 0
CLASSIFICATION_TYPE = U
NORAD_CAT_ID   = 67372
ELEMENT_SET_NO = 999
REV_AT_EPOCH   = 393
BSTAR          = .42092033E-3
MEAN_MOTION_DOT = .3808E-4
MEAN_MOTION_DDOT = 0

CCSDS_OMM_VERS = 2.0
CREATION_DATE  = 
ORIGINATOR     = 

OBJECT_NAME    = ICEYE-X64
OBJECT_ID      = 2026-004L
CENTER_NAME    = EARTH
REF_FRAME      = TEME
TIME_SYSTEM    = UTC
MEAN_ELEMENT_THEORY = SGP/SGP4

EPOCH          = 2026-02-06T23:34:07.175136
MEAN_MOTION    = 14.87584294
ECCENTRICITY   = .00054717
INCLINATION    = 97.7995
RA_OF_ASC_NODE = 38.6947
ARG_OF_PERICENTER = 191.6293
MEAN_ANOMALY   = 168.4798

EPHEMERIS_TYPE = 0
CLASSIFICATION_TYPE = U
NORAD_CAT_ID   = 67373
ELEMENT_SET_NO = 999
REV_AT_EPOCH   = 393
BSTAR          = .28888024E-3
MEAN_MOTION_DOT = .2571E-4
MEAN_MOTION_DDOT = 0

CCSDS_OMM_VERS = 2.0
CREATION_DATE  = 
ORIGINATOR     = 

OBJECT_NAME    = AETHER-3
OBJECT_ID      = 2026-004M
CENTER_NAME    = EARTH
REF_FRAME      = TEME
TIME_SYSTEM    = UTC
MEAN_ELEMENT_THEORY = SGP/SGP4

EPOCH          = 2026-02-06T23:25:34.640832
MEAN_MOTION    = 14.87942973
ECCENTRICITY   = .00042336
INCLINATION    = 97.7979
RA_OF_ASC_NODE = 38.6975
ARG_OF_PERICENTER = 179.7550
MEAN_ANOMALY   = 180.3669

EPHEMERIS_TYPE = 0
CLASSIFICATION_TYPE = U
NORAD_CAT_ID   = 67374
ELEMENT_SET_NO = 999
REV_AT_EPOCH   = 393
BSTAR          = .28314737E-3
MEAN_MOTION_DOT = .2541E-4
MEAN_MOTION_DDOT = 0

CCSDS_OMM_VERS = 2.0
CREATION_DATE  = 
ORIGINATOR     = 

OBJECT_NAME    = AETHER-4
OBJECT_ID      = 2026-004N
CENTER_NAME    = EARTH
REF_FRAME      = TEME
TIME_SYSTEM    = UTC
MEAN_ELEMENT_THEORY = SGP/SGP4

EPOCH          = 2026-02-06T21:48:05.398848
MEAN_MOTION    = 14.87963795
ECCENTRICITY   = .00048264
INCLINATION    = 97.8016
RA_OF_ASC_NODE = 38.6424
ARG_OF_PERICENTER = 175.8332
MEAN_ANOMALY   = 184.2925

EPHEMERIS_TYPE = 0
CLASSIFICATION_TYPE = U
NORAD_CAT_ID   = 67375
ELEMENT_SET_NO = 999
REV_AT_EPOCH   = 392
BSTAR          = .29107952E-3
MEAN_MOTION_DOT = .2615E-4
MEAN_MOTION_DDOT = 0

CCSDS_OMM_VERS = 2.0
CREATION_DATE  = 
ORIGINATOR     = 

OBJECT_NAME    = AETHER-5
OBJECT_ID      = 2026-004P
CENTER_NAME    = EARTH
REF_FRAME      = TEME
TIME_SYSTEM    = UTC
MEAN_ELEMENT_THEORY = SGP/SGP4

EPOCH          = 2026-02-06T23:28:44.403744
MEAN_MOTION    = 14.87804931
ECCENTRICITY   = .00051543
INCLINATION    = 97.8013
RA_OF_ASC_NODE = 38.7038
ARG_OF_PERICENTER = 181.9856
MEAN_ANOMALY   = 178.1341

EPHEMERIS_TYPE = 0
CLASSIFICATION_TYPE = U
NORAD_CAT_ID   = 67376
ELEMENT_SET_NO = 999
REV_AT_EPOCH   = 393
BSTAR          = .29272038E-3
MEAN_MOTION_DOT = .262E-4
MEAN_MOTION_DDOT = 0

CCSDS_OMM_VERS = 2.0
CREATION_DATE  = 
ORIGINATOR     = 

OBJECT_NAME    = AETHER-6
OBJECT_ID      = 2026-004Q
CENTER_NAME    = EARTH
REF_FRAME      = TEME
TIME_SYSTEM    = UTC
MEAN_ELEMENT_THEORY = SGP/SGP4

EPOCH          = 2026-02-05T15:08:06.257472
MEAN_MOTION    = 14.87287400
ECCENTRICITY   = .0004629
INCLINATION    = 97.8013
RA_OF_ASC_NODE = 37.3851
ARG_OF_PERICENTER = 129.8525
MEAN_ANOMALY   = 230.3099

EPHEMERIS_TYPE = 0
CLASSIFICATION_TYPE = U
NORAD_CAT_ID   = 67377
ELEMENT_SET_NO = 999
REV_AT_EPOCH   = 372
BSTAR          = -.28936E-1
MEAN_MOTION_DOT = -.251653E-2
MEAN_MOTION_DDOT = 0

CCSDS_OMM_VERS = 2.0
CREATION_DATE  = 
ORIGINATOR     = 

OBJECT_NAME    = AETHER-7
OBJECT_ID      = 2026-004R
CENTER_NAME    = EARTH
REF_FRAME      = TEME
TIME_SYSTEM    = UTC
MEAN_ELEMENT_THEORY = SGP/SGP4

EPOCH          = 2026-02-06T23:30:35.431200
MEAN_MOTION    = 14.87735633
ECCENTRICITY   = .00045687
INCLINATION    = 97.7987
RA_OF_ASC_NODE = 38.6951
ARG_OF_PERICENTER = 190.0684
MEAN_ANOMALY   = 170.0442

EPHEMERIS_TYPE = 0
CLASSIFICATION_TYPE = U
NORAD_CAT_ID   = 67378
ELEMENT_SET_NO = 999
REV_AT_EPOCH   = 392
BSTAR          = .26764417E-3
MEAN_MOTION_DOT = .2387E-4
MEAN_MOTION_DDOT = 0

CCSDS_OMM_VERS = 2.0
CREATION_DATE  = 
ORIGINATOR     = 

OBJECT_NAME    = AETHER-8
OBJECT_ID      = 2026-004S
CENTER_NAME    = EARTH
REF_FRAME      = TEME
TIME_SYSTEM    = UTC
MEAN_ELEMENT_THEORY = SGP/SGP4

EPOCH          = 2026-02-06T23:30:19.070496
MEAN_MOTION    = 14.87744832
ECCENTRICITY   = .00050531
INCLINATION    = 97.7991
RA_OF_ASC_NODE = 38.6974
ARG_OF_PERICENTER = 187.2251
MEAN_ANOMALY   = 172.8893

EPHEMERIS_TYPE = 0
CLASSIFICATION_TYPE = U
NORAD_CAT_ID   = 67379
ELEMENT_SET_NO = 999
REV_AT_EPOCH   = 392
BSTAR          = .274554E-3
MEAN_MOTION_DOT = .245E-4
MEAN_MOTION_DDOT = 0

CCSDS_OMM_VERS = 2.0
CREATION_DATE  = 
ORIGINATOR     = 

OBJECT_NAME    = AETHER-9
OBJECT_ID      = 2026-004T
CENTER_NAME    = EARTH
REF_FRAME      = TEME
TIME_SYSTEM    = UTC
MEAN_ELEMENT_THEORY = SGP/SGP4

EPOCH          = 2026-02-06T23:27:57.070368
MEAN_MOTION    = 14.87846002
ECCENTRICITY   = .00045667
INCLINATION    = 97.7983
RA_OF_ASC_NODE = 38.6973
ARG_OF_PERICENTER = 185.5132
MEAN_ANOMALY   = 174.6035

EPHEMERIS_TYPE = 0
CLASSIFICATION_TYPE = U
NORAD_CAT_ID   = 67380
ELEMENT_SET_NO = 999
REV_AT_EPOCH   = 392
BSTAR          = .29681724E-3
MEAN_MOTION_DOT = .266E-4
MEAN_MOTION_DDOT = 0

CCSDS_OMM_VERS = 2.0
CREATION_DATE  = 
ORIGINATOR     = 

OBJECT_NAME    = AETHER-10
OBJECT_ID      = 2026-004U
CENTER_NAME    = EARTH
REF_FRAME      = TEME
TIME_SYSTEM    = UTC
MEAN_ELEMENT_THEORY = SGP/SGP4

EPOCH          = 2026-02-06T02:25:58.628064
MEAN_MOTION    = 14.87251054
ECCENTRICITY   = .00031664
INCLINATION    = 97.8017
RA_OF_ASC_NODE = 37.8505
ARG_OF_PERICENTER = 142.3540
MEAN_ANOMALY   = 217.7899

EPHEMERIS_TYPE = 0
CLASSIFICATION_TYPE = U
NORAD_CAT_ID   = 67381
ELEMENT_SET_NO = 999
REV_AT_EPOCH   = 379
BSTAR          = -.27452089E-1
MEAN_MOTION_DOT = -.238932E-2
MEAN_MOTION_DDOT = 0

